<?xml version="1.0" encoding="UTF-8"?>
<ndm xmlns:xsi="http://www.w3.org/2001/XMLSchema-instance" xsi:noNamespaceSchemaLocation="https://sanaregistry.org/r/ndmxml_unqualified/ndmxml-2.0.0-master-2.0.xsd">
<omm id="CCSDS_OMM_VERS" version="2.0">
<header><CREATION_DATE/><ORIGINATOR/></header><body><segment><metadata><OBJECT_NAME>IRIDIUM 150</OBJECT_NAME><OBJECT_ID>2018-030J</OBJECT_ID><CENTER_NAME>EARTH</CENTER_NAME><REF_FRAME>TEME</REF_FRAME><TIME_SYSTEM>UTC</TIME_SYSTEM><MEAN_ELEMENT_THEORY>SGP4</MEAN_ELEMENT_THEORY></metadata><data><meanElements><EPOCH>2024-07-23T18:55:35.344992</EPOCH><MEAN_MOTION>14.34216368</MEAN_MOTION><ECCENTRICITY>.0002285</ECCENTRICITY><INCLINATION>86.3967</INCLINATION><RA_OF_ASC_NODE>220.2246</RA_OF_ASC_NODE><ARG_OF_PERICENTER>83.2222</ARG_OF_PERICENTER><MEAN_ANOMALY>276.9234</MEAN_ANOMALY></meanElements><tleParameters><EPHEMERIS_TYPE>0</EPHEMERIS_TYPE><CLASSIFICATION_TYPE>U</CLASSIFICATION_TYPE><NORAD_CAT_ID>43257</NORAD_CAT_ID><ELEMENT_SET_NO>999</ELEMENT_SET_NO><REV_AT_EPOCH>33077</REV_AT_EPOCH><BSTAR>-.21676E-4</BSTAR><MEAN_MOTION_DOT>-.41E-6</MEAN_MOTION_DOT><MEAN_MOTION_DDOT>0</MEAN_MOTION_DDOT></tleParameters></data></segment></body></omm>
<omm id="CCSDS_OMM_VERS" version="2.0">
<header><CREATION_DATE/><ORIGINATOR/></header><body><segment><metadata><OBJECT_NAME>IRIDIUM 143</OBJECT_NAME><OBJECT_ID>2018-030K</OBJECT_ID><CENTER_NAME>EARTH</CENTER_NAME><REF_FRAME>TEME</REF_FRAME><TIME_SYSTEM>UTC</TIME_SYSTEM><MEAN_ELEMENT_THEORY>SGP4</MEAN_ELEMENT_THEORY></metadata><data><meanElements><EPOCH>2024-07-24T09:32:23.376192</EPOCH><MEAN_MOTION>14.34216947</MEAN_MOTION><ECCENTRICITY>.0002158</ECCENTRICITY><INCLINATION>86.3971</INCLINATION><RA_OF_ASC_NODE>220.0355</RA_OF_ASC_NODE><ARG_OF_PERICENTER>81.2444</ARG_OF_PERICENTER><MEAN_ANOMALY>278.8996</MEAN_ANOMALY></meanElements><tleParameters><EPHEMERIS_TYPE>0</EPHEMERIS_TYPE><CLASSIFICATION_TYPE>U</CLASSIFICATION_TYPE><NORAD_CAT_ID>43258</NORAD_CAT_ID><ELEMENT_SET_NO>999</ELEMENT_SET_NO><REV_AT_EPOCH>33082</REV_AT_EPOCH><BSTAR>-.53521E-5</BSTAR><MEAN_MOTION_DOT>.5E-7</MEAN_MOTION_DOT><MEAN_MOTION_DDOT>0</MEAN_MOTION_DDOT></tleParameters></data></segment></body></omm>
<omm id="CCSDS_OMM_VERS" version="2.0">
<header><CREATION_DATE/><ORIGINATOR/></header><body><segment><metadata><OBJECT_NAME>IRIDIUM 161</OBJECT_NAME><OBJECT_ID>2018-047C</OBJECT_ID><CENTER_NAME>EARTH</CENTER_NAME><REF_FRAME>TEME</REF_FRAME><TIME_SYSTEM>UTC</TIME_SYSTEM><MEAN_ELEMENT_THEORY>SGP4</MEAN_ELEMENT_THEORY></metadata><data><meanElements><EPOCH>2024-07-24T11:37:46.556832</EPOCH><MEAN_MOTION>14.43272527</MEAN_MOTION><ECCENTRICITY>.0001938</ECCENTRICITY><INCLINATION>86.4503</INCLINATION><RA_OF_ASC_NODE>17.9480</RA_OF_ASC_NODE><ARG_OF_PERICENTER>84.4447</ARG_OF_PERICENTER><MEAN_ANOMALY>275.6975</MEAN_ANOMALY></meanElements><tleParameters><EPHEMERIS_TYPE>0</EPHEMERIS_TYPE><CLASSIFICATION_TYPE>U</CLASSIFICATION_TYPE><NORAD_CAT_ID>43478</NORAD_CAT_ID><ELEMENT_SET_NO>999</ELEMENT_SET_NO><REV_AT_EPOCH>32522</REV_AT_EPOCH><BSTAR>.98057E-4</BSTAR><MEAN_MOTION_DOT>.35E-5</MEAN_MOTION_DOT><MEAN_MOTION_DDOT>0</MEAN_MOTION_DDOT></tleParameters></data></segment></body></omm>
<omm id="CCSDS_OMM_VERS" version="2.0">
<header><CREATION_DATE/><ORIGINATOR/></header><body><segment><metadata><OBJECT_NAME>IRIDIUM 152</OBJECT_NAME><OBJECT_ID>2018-047D</OBJECT_ID><CENTER_NAME>EARTH</CENTER_NAME><REF_FRAME>TEME</REF_FRAME><TIME_SYSTEM>UTC</TIME_SYSTEM><MEAN_ELEMENT_THEORY>SGP4</MEAN_ELEMENT_THEORY></metadata><data><meanElements><EPOCH>2024-07-24T10:33:34.313472</EPOCH><MEAN_MOTION>14.34219088</MEAN_MOTION><ECCENTRICITY>.0002186</ECCENTRICITY><INCLINATION>86.3969</INCLINATION><RA_OF_ASC_NODE>17.8253</RA_OF_ASC_NODE><ARG_OF_PERICENTER>90.0770</ARG_OF_PERICENTER><MEAN_ANOMALY>270.0676</MEAN_ANOMALY></meanElements><tleParameters><EPHEMERIS_TYPE>0</EPHEMERIS_TYPE><CLASSIFICATION_TYPE>U</CLASSIFICATION_TYPE><NORAD_CAT_ID>43479</NORAD_CAT_ID><ELEMENT_SET_NO>999</ELEMENT_SET_NO><REV_AT_EPOCH>32320</REV_AT_EPOCH><BSTAR>.20919E-3</BSTAR><MEAN_MOTION_DOT>.606E-5</MEAN_MOTION_DOT><MEAN_MOTION_DDOT>0</MEAN_MOTION_DDOT></tleParameters></data></segment></body></omm>
<omm id="CCSDS_OMM_VERS" version="2.0">
<header><CREATION_DATE/><ORIGINATOR/></header><body><segment><metadata><OBJECT_NAME>IRIDIUM 147</OBJECT_NAME><OBJECT_ID>2018-047E</OBJECT_ID><CENTER_NAME>EARTH</CENTER_NAME><REF_FRAME>TEME</REF_FRAME><TIME_SYSTEM>UTC</TIME_SYSTEM><MEAN_ELEMENT_THEORY>SGP4</MEAN_ELEMENT_THEORY></metadata><data><meanElements><EPOCH>2024-07-24T00:39:54.112896</EPOCH><MEAN_MOTION>14.34218134</MEAN_MOTION><ECCENTRICITY>.0002249</ECCENTRICITY><INCLINATION>86.3962</INCLINATION><RA_OF_ASC_NODE>17.9906</RA_OF_ASC_NODE><ARG_OF_PERICENTER>93.1756</ARG_OF_PERICENTER><MEAN_ANOMALY>266.9697</MEAN_ANOMALY></meanElements><tleParameters><EPHEMERIS_TYPE>0</EPHEMERIS_TYPE><CLASSIFICATION_TYPE>U</CLASSIFICATION_TYPE><NORAD_CAT_ID>43480</NORAD_CAT_ID><ELEMENT_SET_NO>999</ELEMENT_SET_NO><REV_AT_EPOCH>32313</REV_AT_EPOCH><BSTAR>.96909E-4</BSTAR><MEAN_MOTION_DOT>.291E-5</MEAN_MOTION_DOT><MEAN_MOTION_DDOT>0</MEAN_MOTION_DDOT></tleParameters></data></segment></body></omm>
<omm id="CCSDS_OMM_VERS" version="2.0">
<header><CREATION_DATE/><ORIGINATOR/></header><body><segment><metadata><OBJECT_NAME>IRIDIUM 110</OBJECT_NAME><OBJECT_ID>2018-047F</OBJECT_ID><CENTER_NAME>EARTH</CENTER_NAME><REF_FRAME>TEME</REF_FRAME><TIME_SYSTEM>UTC</TIME_SYSTEM><MEAN_ELEMENT_THEORY>SGP4</MEAN_ELEMENT_THEORY></metadata><data><meanElements><EPOCH>2024-07-24T10:51:50.159232</EPOCH><MEAN_MOTION>14.34220108</MEAN_MOTION><ECCENTRICITY>.0002298</ECCENTRICITY><INCLINATION>86.3973</INCLINATION><RA_OF_ASC_NODE>17.8870</RA_OF_ASC_NODE><ARG_OF_PERICENTER>100.0609</ARG_OF_PERICENTER><MEAN_ANOMALY>260.0846</MEAN_ANOMALY></meanElements><tleParameters><EPHEMERIS_TYPE>0</EPHEMERIS_TYPE><CLASSIFICATION_TYPE>U</CLASSIFICATION_TYPE><NORAD_CAT_ID>43481</NORAD_CAT_ID><ELEMENT_SET_NO>999</ELEMENT_SET_NO><REV_AT_EPOCH>32318</REV_AT_EPOCH><BSTAR>.15924E-3</BSTAR><MEAN_MOTION_DOT>.466E-5</MEAN_MOTION_DOT><MEAN_MOTION_DDOT>0</MEAN_MOTION_DDOT></tleParameters></data></segment></body></omm>
<omm id="CCSDS_OMM_VERS" version="2.0">
<header><CREATION_DATE/><ORIGINATOR/></header><body><segment><metadata><OBJECT_NAME>IRIDIUM 162</OBJECT_NAME><OBJECT_ID>2018-047G</OBJECT_ID><CENTER_NAME>EARTH</CENTER_NAME><REF_FRAME>TEME</REF_FRAME><TIME_SYSTEM>UTC</TIME_SYSTEM><MEAN_ELEMENT_THEORY>SGP4</MEAN_ELEMENT_THEORY></metadata><data><meanElements><EPOCH>2024-07-23T23:49:59.078496</EPOCH><MEAN_MOTION>14.43280280</MEAN_MOTION><ECCENTRICITY>.00023</ECCENTRICITY><INCLINATION>86.4491</INCLINATION><RA_OF_ASC_NODE>18.0521</RA_OF_ASC_NODE><ARG_OF_PERICENTER>90.4757</ARG_OF_PERICENTER><MEAN_ANOMALY>269.6708</MEAN_ANOMALY></meanElements><tleParameters><EPHEMERIS_TYPE>0</EPHEMERIS_TYPE><CLASSIFICATION_TYPE>U</CLASSIFICATION_TYPE><NORAD_CAT_ID>43482</NORAD_CAT_ID><ELEMENT_SET_NO>999</ELEMENT_SET_NO><REV_AT_EPOCH>32514</REV_AT_EPOCH><BSTAR>.10547E-3</BSTAR><MEAN_MOTION_DOT>.375E-5</MEAN_MOTION_DOT><MEAN_MOTION_DDOT>0</MEAN_MOTION_DDOT></tleParameters></data></segment></body></omm>
<omm id="CCSDS_OMM_VERS" version="2.0">
<header><CREATION_DATE/><ORIGINATOR/></header><body><segment><metadata><OBJECT_NAME>IRIDIUM 160</OBJECT_NAME><OBJECT_ID>2018-061A</OBJECT_ID><CENTER_NAME>EARTH</CENTER_NAME><REF_FRAME>TEME</REF_FRAME><TIME_SYSTEM>UTC</TIME_SYSTEM><MEAN_ELEMENT_THEORY>SGP4</MEAN_ELEMENT_THEORY></metadata><data><meanElements><EPOCH>2024-07-23T15:08:42.377856</EPOCH><MEAN_MOTION>14.34218674</MEAN_MOTION><ECCENTRICITY>.000187</ECCENTRICITY><INCLINATION>86.4001</INCLINATION><RA_OF_ASC_NODE>346.6182</RA_OF_ASC_NODE><ARG_OF_PERICENTER>102.3868</ARG_OF_PERICENTER><MEAN_ANOMALY>257.7538</MEAN_ANOMALY></meanElements><tleParameters><EPHEMERIS_TYPE>0</EPHEMERIS_TYPE><CLASSIFICATION_TYPE>U</CLASSIFICATION_TYPE><NORAD_CAT_ID>43569</NORAD_CAT_ID><ELEMENT_SET_NO>999</ELEMENT_SET_NO><REV_AT_EPOCH>31396</REV_AT_EPOCH><BSTAR>.86362E-4</BSTAR><MEAN_MOTION_DOT>.262E-5</MEAN_MOTION_DOT><MEAN_MOTION_DDOT>0</MEAN_MOTION_DDOT></tleParameters></data></segment></body></omm>

</ndm>
