IRIDIUM 150             
1 43257U 18030J   24205.78860353 -.00000041  00000+0 -21676-4 0  9998
2 43257  86.3967 220.2246 0002285  83.2222 276.9234 14.34216368330777
IRIDIUM 143             
1 43258U 18030K   24206.39749278  .00000005  00000+0 -53521-5 0  9993
2 43258  86.3971 220.0355 0002158  81.2444 278.8996 14.34216947330820
IRIDIUM 161             
1 43478U 18047C   24206.48456663  .00000350  00000+0  98057-4 0  9992
2 43478  86.4503  17.9480 0001938  84.4447 275.6975 14.43272527325227
IRIDIUM 152             
1 43479U 18047D   24206.43998048  .00000606  00000+0  20919-3 0  9991
2 43479  86.3969  17.8253 0002186  90.0770 270.0676 14.34219088323204
IRIDIUM 147             
1 43480U 18047E   24206.02770964  .00000291  00000+0  96909-4 0  9996
2 43480  86.3962  17.9906 0002249  93.1756 266.9697 14.34218134323133
IRIDIUM 110             
1 43481U 18047F   24206.45266388  .00000466  00000+0  15924-3 0  9995
2 43481  86.3973  17.8870 0002298 100.0609 260.0846 14.34220108323184
IRIDIUM 162             
1 43482U 18047G   24205.99304489  .00000375  00000+0  10547-3 0  9994
2 43482  86.4491  18.0521 0002300  90.4757 269.6708 14.43280280325144
IRIDIUM 160             
1 43569U 18061A   24205.63104604  .00000262  00000+0  86362-4 0  9998
2 43569  86.4001 346.6182 0001870 102.3868 257.7538 14.34218674313961
